CORVUS BC1              
1 42847U 17042Y   18190.78642418  .00000024  00000-0  76703-5 0  9992
2 42847  97.5956  92.8954 0010685 116.2384 243.9935 14.91928398 53737
SILU-1 (SILKROAD 1)     
1 42903U 17021F   18191.41472475  .00020035  00000-0  14696-3 0  9992
2 42903  42.7764 187.4066 0011264 106.2082  44.5117 15.72659991 53582
MIRATA                  
1 43015U 17073C   18191.37529275  .00000494  00000-0  44680-4 0  9994
2 43015  97.7044 121.4222 0257459 195.7308 163.5797 14.78174962 34560
MAKERSAT 0              
1 43016U 17073D   18191.36002226  .00000318  00000-0  30639-4 0  9990
2 43016  97.7074 121.5325 0258917 195.8353 163.4653 14.78176078 34559
ASTERIA                 
1 43020U 98067NH  18191.40470262  .00006922  00000-0  90799-4 0  9991
2 43020  51.6415 257.6693 0001908 269.6158  90.4617 15.59811343 36114
DELLINGR (RBLE)         
1 43021U 98067NJ  18191.54689982  .00004307  00000-0  63320-4 0  9993
2 43021  51.6395 258.5888 0001803 255.3241 104.7551 15.57825986 36119
OSIRIS-3U               
1 43027U 98067NL  18191.39463415  .00019569  00000-0  19597-3 0  9995
2 43027  51.6372 253.0512 0002468 274.6502  85.4212 15.65558547 36053
AEROCUBE 7B             
1 43042U 17071F   18190.78347062  .00001686  00000-0  53174-4 0  9990
2 43042  51.6396 291.4249 0005030 351.3264   8.7632 15.38984880 33082
AEROCUBE 7C             
1 43043U 17071G   18191.23795604  .00001813  00000-0  56402-4 0  9990
2 43043  51.6399 289.2142 0005101 355.3747   4.7190 15.38993893 33126
CHEFSAT                 
1 43044U 17071H   18190.71375055  .00003895  00000-0  10605-3 0  9993
2 43044  51.6402 290.9870 0005036 352.3971   7.6937 15.39974545 33059
ASGARDIA 1              
1 43049U 17071N   18190.69730817  .00002224  00000-0  66561-4 0  9994
2 43049  51.6400 291.6108 0002686  17.6063 342.5014 15.39120753 33034
ISARA                   
1 43050U 17071P   18190.71797854  .00002769  00000-0  78709-4 0  9994
2 43050  51.6396 291.0106 0002568  12.3827 347.7221 15.39798198 33043
FAUNA                   
1 43052U 17071R   18191.20320883  .00002427  00000-0  71397-4 0  9992
2 43052  51.6400 288.9978 0002591  15.8054 344.3011 15.39264313 33114
CORVUS BC3              
1 43118U 18004H   18191.34583471  .00000637  00000-0  30772-4 0  9994
2 43118  97.5317 253.9802 0011149  22.7599 337.4129 15.22286911 27230
MICROMAS-2A             
1 43131U 18004W   18190.90298616  .00001383  00000-0  62075-4 0  9994
2 43131  97.5326 253.6640 0010409  28.1156 332.0641 15.22881178 27178
GOMX4-B                 
1 43196U 18015E   18190.93312462 -.00000064  00000-0  25717-6 0  9996
2 43196  97.3471 319.3962 0020826  77.4110 282.9427 15.23668757 23994
GOMX4-A                 
1 43197U 18015F   18191.39549644  .00000441  00000-0  21203-4 0  9994
2 43197  97.3494 319.8551 0021069  77.4709 316.9767 15.23683424 24076
UBAKUSAT                
1 43466U 98067NP  18191.42426410  .00007166  00000-0  10749-3 0  9990
2 43466  51.6397 262.2643 0000199  17.6982 342.4016 15.56091917  9321
1KUNS-PF                
1 43467U 98067NQ  18191.49038599  .00005390  00000-0  83143-4 0  9991
2 43467  51.6400 261.9574 0002151 217.4668 142.6173 15.55906880  9335
BATSU-CS1 (IRAZU)       
1 43468U 98067NR  18190.64882574  .00008407  00000-0  12396-3 0  9991
2 43468  51.6396 266.0853 0000304  24.4653 335.6353 15.56299680109186
